{"type": "FeatureCollection", "features": [ {"type": "Feature", "properties": {"norad_id": 66628, "name": "STARLINK-35862", "group": "last-30-days", "lat": -46.61002290453112, "lon": 136.71523144792224, "alt_km": 417.2954039505439, "timestamp": "2025-12-12T07:43:19.258797+00:00", "meta": {"OBJECT_NAME": "STARLINK-35862", "OBJECT_ID": "2025-271M", "EPOCH": "2025-12-11T20:00:01.999872", "MEAN_MOTION": 15.53788384, "ECCENTRICITY": 0.00010235, "INCLINATION": 53.1599, "RA_OF_ASC_NODE": 191.5381, "ARG_OF_PERICENTER": 75.6395, "MEAN_ANOMALY": 7.612, "EPHEMERIS_TYPE": 0, "CLASSIFICATION_TYPE": "U", "NORAD_CAT_ID": 66628, "ELEMENT_SET_NO": 999, "REV_AT_EPOCH": 409, "BSTAR": -0.035238886, "MEAN_MOTION_DOT": -0.02051844, "MEAN_MOTION_DDOT": 0}, "tle": {"line1": "1 66628U 25271M   25345.83335648 -.02051844  00000+0 -35239-1 0  9992", "line2": "2 66628  53.1599 191.5381 0001023  75.6395   7.6120 15.53788384  4092"}}, "geometry": {"type": "Point", "coordinates": [136.71523144792224, -46.61002290453112]}}, {"type": "Feature", "properties": {"norad_id": 66629, "name": "STARLINK-35956", "group": "last-30-days", "lat": -45.652533464200665, "lon": 139.10105918108016, "alt_km": 417.1526423534842, "timestamp": "2025-12-12T07:43:19.258808+00:00", "meta": {"OBJECT_NAME": "STARLINK-35956", "OBJECT_ID": "2025-271N", "EPOCH": "2025-12-11T20:00:01.999872", "MEAN_MOTION": 15.53790933, "ECCENTRICITY": 9.421e-05, "INCLINATION": 53.1596, "RA_OF_ASC_NODE": 191.5347, "ARG_OF_PERICENTER": 87.7423, "MEAN_ANOMALY": 357.4252, "EPHEMERIS_TYPE": 0, "CLASSIFICATION_TYPE": "U", "NORAD_CAT_ID": 66629, "ELEMENT_SET_NO": 999, "REV_AT_EPOCH": 409, "BSTAR": -0.03528698, "MEAN_MOTION_DOT": -0.02054465, "MEAN_MOTION_DDOT": 0}, "tle": {"line1": "1 66629U 25271N   25345.83335648 -.02054465  00000+0 -35287-1 0  9998", "line2": "2 66629  53.1596 191.5347 0000942  87.7423 357.4252 15.53790933  4092"}}, "geometry": {"type": "Point", "coordinates": [139.10105918108016, -45.652533464200665]}}, {"type": "Feature", "properties": {"norad_id": 66630, "name": "STARLINK-35949", "group": "last-30-days", "lat": -44.64616479005608, "lon": 141.40550928150233, "alt_km": 417.09307557985176, "timestamp": "2025-12-12T07:43:19.258818+00:00", "meta": {"OBJECT_NAME": "STARLINK-35949", "OBJECT_ID": "2025-271P", "EPOCH": "2025-12-11T20:00:01.999872", "MEAN_MOTION": 15.5379173, "ECCENTRICITY": 8.26e-05, "INCLINATION": 53.1598, "RA_OF_ASC_NODE": 191.5293, "ARG_OF_PERICENTER": 96.0831, "MEAN_ANOMALY": 350.9991, "EPHEMERIS_TYPE": 0, "CLASSIFICATION_TYPE": "U", "NORAD_CAT_ID": 66630, "ELEMENT_SET_NO": 999, "REV_AT_EPOCH": 409, "BSTAR": -0.035279036, "MEAN_MOTION_DOT": -0.02054038, "MEAN_MOTION_DDOT": 0}, "tle": {"line1": "1 66630U 25271P   25345.83335648 -.02054038  00000+0 -35279-1 0  9997", "line2": "2 66630  53.1598 191.5293 0000826  96.0831 350.9991 15.53791730  4097"}}, "geometry": {"type": "Point", "coordinates": [141.40550928150233, -44.64616479005608]}}, {"type": "Feature", "properties": {"norad_id": 66631, "name": "STARLINK-35965", "group": "last-30-days", "lat": -43.59548570239398, "lon": 143.63002153044957, "alt_km": 417.0730388878601, "timestamp": "2025-12-12T07:43:19.258828+00:00", "meta": {"OBJECT_NAME": "STARLINK-35965", "OBJECT_ID": "2025-271Q", "EPOCH": "2025-12-11T20:00:01.999872", "MEAN_MOTION": 15.5379043, "ECCENTRICITY": 8.942e-05, "INCLINATION": 53.1598, "RA_OF_ASC_NODE": 191.5262, "ARG_OF_PERICENTER": 94.9371, "MEAN_ANOMALY": 354.0633, "EPHEMERIS_TYPE": 0, "CLASSIFICATION_TYPE": "U", "NORAD_CAT_ID": 66631, "ELEMENT_SET_NO": 999, "REV_AT_EPOCH": 409, "BSTAR": -0.035257977, "MEAN_MOTION_DOT": -0.02052897, "MEAN_MOTION_DDOT": 0}, "tle": {"line1": "1 66631U 25271Q   25345.83335648 -.02052897  00000+0 -35258-1 0  9996", "line2": "2 66631  53.1598 191.5262 0000894  94.9371 354.0633 15.53790430  4099"}}, "geometry": {"type": "Point", "coordinates": [143.63002153044957, -43.59548570239398]}}, {"type": "Feature", "properties": {"norad_id": 66632, "name": "STARLINK-35973", "group": "last-30-days", "lat": -42.50434231769014, "lon": 145.77316088755862, "alt_km": 417.1061575362246, "timestamp": "2025-12-12T07:43:19.258840+00:00", "meta": {"OBJECT_NAME": "STARLINK-35973", "OBJECT_ID": "2025-271R", "EPOCH": "2025-12-11T20:00:01.999872", "MEAN_MOTION": 15.53791045, "ECCENTRICITY": 0.00010689, "INCLINATION": 53.1596, "RA_OF_ASC_NODE": 191.5225, "ARG_OF_PERICENTER": 75.223, "MEAN_ANOMALY": 15.6953, "EPHEMERIS_TYPE": 0, "CLASSIFICATION_TYPE": "U", "NORAD_CAT_ID": 66632, "ELEMENT_SET_NO": 999, "REV_AT_EPOCH": 403, "BSTAR": -0.035343268, "MEAN_MOTION_DOT": -0.02057471, "MEAN_MOTION_DDOT": 0}, "tle": {"line1": "1 66632U 25271R   25345.83335648 -.02057471  00000+0 -35343-1 0  9995", "line2": "2 66632  53.1596 191.5225 0001068  75.2230  15.6953 15.53791045  4039"}}, "geometry": {"type": "Point", "coordinates": [145.77316088755862, -42.50434231769014]}}, {"type": "Feature", "properties": {"norad_id": 66633, "name": "STARLINK-35948", "group": "last-30-days", "lat": -41.371191102303435, "lon": 147.84643416987868, "alt_km": 416.8425531681851, "timestamp": "2025-12-12T07:43:19.258851+00:00", "meta": {"OBJECT_NAME": "STARLINK-35948", "OBJECT_ID": "2025-271S", "EPOCH": "2025-12-11T20:00:01.999872", "MEAN_MOTION": 15.5378678, "ECCENTRICITY": 8.235e-05, "INCLINATION": 53.1598, "RA_OF_ASC_NODE": 191.5172, "ARG_OF_PERICENTER": 88.1098, "MEAN_ANOMALY": 4.7265, "EPHEMERIS_TYPE": 0, "CLASSIFICATION_TYPE": "U", "NORAD_CAT_ID": 66633, "ELEMENT_SET_NO": 999, "REV_AT_EPOCH": 409, "BSTAR": -0.035169802, "MEAN_MOTION_DOT": -0.0204803, "MEAN_MOTION_DDOT": 0}, "tle": {"line1": "1 66633U 25271S   25345.83335648 -.02048030  00000+0 -35170-1 0  9995", "line2": "2 66633  53.1598 191.5172 0000823  88.1098   4.7265 15.53786780  4097"}}, "geometry": {"type": "Point", "coordinates": [147.84643416987868, -41.371191102303435]}}, {"type": "Feature", "properties": {"norad_id": 66634, "name": "STARLINK-35967", "group": "last-30-days", "lat": -40.20513338295798, "lon": 149.84232065349912, "alt_km": 416.9173965735554, "timestamp": "2025-12-12T07:43:19.258861+00:00", "meta": {"OBJECT_NAME": "STARLINK-35967", "OBJECT_ID": "2025-271T", "EPOCH": "2025-12-11T20:00:01.999872", "MEAN_MOTION": 15.53793491, "ECCENTRICITY": 9.471e-05, "INCLINATION": 53.1595, "RA_OF_ASC_NODE": 191.513, "ARG_OF_PERICENTER": 93.8304, "MEAN_ANOMALY": 0.9198, "EPHEMERIS_TYPE": 0, "CLASSIFICATION_TYPE": "U", "NORAD_CAT_ID": 66634, "ELEMENT_SET_NO": 999, "REV_AT_EPOCH": 402, "BSTAR": -0.035374381, "MEAN_MOTION_DOT": -0.02059178, "MEAN_MOTION_DDOT": 0}, "tle": {"line1": "1 66634U 25271T   25345.83335648 -.02059178  00000+0 -35374-1 0  9997", "line2": "2 66634  53.1595 191.5130 0000947  93.8304   0.9198 15.53793491  4022"}}, "geometry": {"type": "Point", "coordinates": [149.84232065349912, -40.20513338295798]}}, {"type": "Feature", "properties": {"norad_id": 66635, "name": "STARLINK-35955", "group": "last-30-days", "lat": -39.00321128792283, "lon": 151.77412925146064, "alt_km": 416.79916921445056, "timestamp": "2025-12-12T07:43:19.258871+00:00", "meta": {"OBJECT_NAME": "STARLINK-35955", "OBJECT_ID": "2025-271U", "EPOCH": "2025-12-11T20:00:01.999872", "MEAN_MOTION": 15.53790536, "ECCENTRICITY": 9.508e-05, "INCLINATION": 53.1592, "RA_OF_ASC_NODE": 191.5092, "ARG_OF_PERICENTER": 89.8337, "MEAN_ANOMALY": 6.8348, "EPHEMERIS_TYPE": 0, "CLASSIFICATION_TYPE": "U", "NORAD_CAT_ID": 66635, "ELEMENT_SET_NO": 999, "REV_AT_EPOCH": 409, "BSTAR": -0.035273087, "MEAN_MOTION_DOT": -0.02053723, "MEAN_MOTION_DDOT": 0}, "tle": {"line1": "1 66635U 25271U   25345.83335648 -.02053723  00000+0 -35273-1 0  9996", "line2": "2 66635  53.1592 191.5092 0000950  89.8337   6.8348 15.53790536  4098"}}, "geometry": {"type": "Point", "coordinates": [151.77412925146064, -39.00321128792283]}}, {"type": "Feature", "properties": {"norad_id": 66636, "name": "STARLINK-35968", "group": "last-30-days", "lat": -37.77242811093006, "lon": 153.63772399553173, "alt_km": 416.81320466221587, "timestamp": "2025-12-12T07:43:19.258881+00:00", "meta": {"OBJECT_NAME": "STARLINK-35968", "OBJECT_ID": "2025-271V", "EPOCH": "2025-12-11T20:00:01.999872", "MEAN_MOTION": 15.53790126, "ECCENTRICITY": 0.00010798, "INCLINATION": 53.159, "RA_OF_ASC_NODE": 191.5055, "ARG_OF_PERICENTER": 75.3001, "MEAN_ANOMALY": 23.2853, "EPHEMERIS_TYPE": 0, "CLASSIFICATION_TYPE": "U", "NORAD_CAT_ID": 66636, "ELEMENT_SET_NO": 999, "REV_AT_EPOCH": 409, "BSTAR": -0.035294579, "MEAN_MOTION_DOT": -0.02054889, "MEAN_MOTION_DDOT": 0}, "tle": {"line1": "1 66636U 25271V   25345.83335648 -.02054889  00000+0 -35295-1 0  9995", "line2": "2 66636  53.1590 191.5055 0001079  75.3001  23.2853 15.53790126  4096"}}, "geometry": {"type": "Point", "coordinates": [153.63772399553173, -37.77242811093006]}}, {"type": "Feature", "properties": {"norad_id": 66637, "name": "STARLINK-35953", "group": "last-30-days", "lat": -36.51144453164744, "lon": 155.44195764460403, "alt_km": 416.6628031242326, "timestamp": "2025-12-12T07:43:19.258891+00:00", "meta": {"OBJECT_NAME": "STARLINK-35953", "OBJECT_ID": "2025-271W", "EPOCH": "2025-12-11T20:00:01.999872", "MEAN_MOTION": 15.53790387, "ECCENTRICITY": 9.615e-05, "INCLINATION": 53.159, "RA_OF_ASC_NODE": 191.5016, "ARG_OF_PERICENTER": 91.2414, "MEAN_ANOMALY": 9.2607, "EPHEMERIS_TYPE": 0, "CLASSIFICATION_TYPE": "U", "NORAD_CAT_ID": 66637, "ELEMENT_SET_NO": 999, "REV_AT_EPOCH": 409, "BSTAR": -0.035282717, "MEAN_MOTION_DOT": -0.02054219, "MEAN_MOTION_DDOT": 0}, "tle": {"line1": "1 66637U 25271W   25345.83335648 -.02054219  00000+0 -35283-1 0  9990", "line2": "2 66637  53.1590 191.5016 0000961  91.2414   9.2607 15.53790387  4098"}}, "geometry": {"type": "Point", "coordinates": [155.44195764460403, -36.51144453164744]}}]}